{"type": "FeatureCollection", "features": [{"type": "Feature", "geometry": {"type": "Point", "coordinates": [106.8480786, -6.1597388]}, "properties": {"name": "Pool Damri Kemayoran", "amenity": "bus_station"}}, {"type": "Feature", "geometry": {"type": "Point", "coordinates": [106.8443744, -6.1516882]}, "properties": {"name": "Pasar Mobil Kemayoran", "amenity": "marketplace"}}, {"type": "Feature", "geometry": {"type": "Point", "coordinates": [106.8552096, -6.1716224]}, "properties": {"name": "Posyandu Melati", "amenity": "clinic"}}, {"type": "Feature", "geometry": {"type": "Point", "coordinates": [106.8552251, -6.1703047]}, "properties": {"name": "Posyandu Mawar", "amenity": "clinic"}}, {"type": "Feature", "geometry": {"type": "Point", "coordinates": [106.8513738, -6.1717755]}, "properties": {"name": "Posyandu Cempaka", "amenity": "clinic"}}, {"type": "Feature", "geometry": {"type": "Point", "coordinates": [106.8445744, -6.1744233]}, "properties": {"name": "Pasar Senen", "amenity": "station"}}, {"type": "Feature", "geometry": {"type": "Point", "coordinates": [106.8622133, -6.1647058]}, "properties": {"name": "Posyandu Melati Putih", "amenity": "clinic"}}, {"type": "Feature", "geometry": {"type": "Point", "coordinates": [106.8595492, -6.1630429]}, "properties": {"name": "Posyandu Mawar Merah", "amenity": "clinic"}}, {"type": "Feature", "geometry": {"type": "Point", "coordinates": [106.8526894, -6.167616]}, "properties": {"name": "Posyandu Anggrek", "amenity": "clinic"}}, {"type": "Feature", "geometry": {"type": "Point", "coordinates": [106.8554869, -6.1627686]}, "properties": {"name": "Posyandu Melati", "amenity": "clinic"}}, {"type": "Feature", "geometry": {"type": "Point", "coordinates": [106.8500749, -6.164711]}, "properties": {"name": "Posyandu Bougenvile", "amenity": "clinic"}}, {"type": "Feature", "geometry": {"type": "Point", "coordinates": [106.8561295, -6.1558656]}, "properties": {"name": "Posyandu Dahlia", "amenity": "clinic"}}, {"type": "Feature", "geometry": {"type": "Point", "coordinates": [106.8582607, -6.1532323]}, "properties": {"name": "Posyandu Dahlia", "amenity": "clinic"}}, {"type": "Feature", "geometry": {"type": "Point", "coordinates": [106.8528, -6.1624989]}, "properties": {"name": "Posyandu Kenanga", "amenity": "clinic"}}, {"type": "Feature", "geometry": {"type": "Point", "coordinates": [106.8542628, -6.1612399]}, "properties": {"name": "Posyandu Anggrek", "amenity": "clinic"}}, {"type": "Feature", "geometry": {"type": "Point", "coordinates": [106.8555308, -6.1579785]}, "properties": {"name": "Posyandu Mawar", "amenity": "clinic"}}, {"type": "Feature", "geometry": {"type": "Point", "coordinates": [106.8466276, -6.1660771]}, "properties": {"name": "Posyandu", "amenity": "clinic"}}, {"type": "Feature", "geometry": {"type": "Point", "coordinates": [106.8462896, -6.1653136]}, "properties": {"name": "Posyandu Dahlia", "amenity": "clinic"}}, {"type": "Feature", "geometry": {"type": "Point", "coordinates": [106.8422441, -6.163414]}, "properties": {"name": "Posyandu Teratai", "amenity": "clinic"}}, {"type": "Feature", "geometry": {"type": "Point", "coordinates": [106.8482637, -6.1644957]}, "properties": {"name": "Posyandu Melati Putih", "amenity": "clinic"}}, {"type": "Feature", "geometry": {"type": "Point", "coordinates": [106.8472507, -6.1620114]}, "properties": {"name": "Posyandu RW 07", "amenity": "clinic"}}, {"type": "Feature", "geometry": {"type": "Point", "coordinates": [106.8484562, -6.1623523]}, "properties": {"name": "Posyandu Kantil", "amenity": "clinic"}}, {"type": "Feature", "geometry": {"type": "Point", "coordinates": [106.8417115, -6.162863]}, "properties": {"name": "Posyandu Anggrek", "amenity": "clinic"}}, {"type": "Feature", "geometry": {"type": "Point", "coordinates": [106.8414012, -6.1617033]}, "properties": {"name": "Kemayoran", "amenity": "station"}}, {"type": "Feature", "geometry": {"type": "Point", "coordinates": [106.8419388, -6.1607246]}, "properties": {"name": "Posyandu Dahlia", "amenity": "clinic"}}, {"type": "Feature", "geometry": {"type": "Point", "coordinates": [106.8617211, -6.1606122]}, "properties": {"name": "Posyandu Kenanga", "amenity": "clinic"}}, {"type": "Feature", "geometry": {"type": "Point", "coordinates": [106.8579253, -6.1581384]}, "properties": {"name": "Posyandu Anggrek I", "amenity": "clinic"}}, {"type": "Feature", "geometry": {"type": "Point", "coordinates": [106.8721802, -6.1632601]}, "properties": {"name": "Posyandu Lansia", "amenity": "clinic"}}, {"type": "Feature", "geometry": {"type": "Point", "coordinates": [106.8708765, -6.1663189]}, "properties": {"name": "Posyandu Wijaya Kusuma", "amenity": "clinic"}}, {"type": "Feature", "geometry": {"type": "Point", "coordinates": [106.8709871, -6.1613352]}, "properties": {"name": "Posyandu Alamanda", "amenity": "clinic"}}, {"type": "Feature", "geometry": {"type": "Point", "coordinates": [106.868616, -6.1636899]}, "properties": {"name": "Posyandu Melati", "amenity": "clinic"}}, {"type": "Feature", "geometry": {"type": "Point", "coordinates": [106.8509038, -6.166125]}, "properties": {"name": "Posyandu Cempaka", "amenity": "clinic"}}, {"type": "Feature", "geometry": {"type": "Point", "coordinates": [106.8429744, -6.152846]}, "properties": {"name": "Sekolah Kristen Calvin SD-SMP-SMA", "amenity": "school"}}, {"type": "Feature", "geometry": {"type": "Point", "coordinates": [106.840591, -6.1400976]}, "properties": {"name": "Posyandu Melati", "amenity": "clinic"}}, {"type": "Feature", "geometry": {"type": "Point", "coordinates": [106.8440404, -6.1414277]}, "properties": {"name": "Posyandu RW 04", "amenity": "clinic"}}, {"type": "Feature", "geometry": {"type": "Point", "coordinates": [106.8565757, -6.1448644]}, "properties": {"name": "Posyandu Teratai", "amenity": "clinic"}}, {"type": "Feature", "geometry": {"type": "Point", "coordinates": [106.8703155, -6.1589756]}, "properties": {"name": "Klinik Anggrek", "amenity": "clinic"}}, {"type": "Feature", "geometry": {"type": "Point", "coordinates": [106.8673611, -6.1562141]}, "properties": {"name": "Posyandu Ade Irma Suryani", "amenity": "clinic"}}, {"type": "Feature", "geometry": {"type": "Point", "coordinates": [106.8714944, -6.1518793]}, "properties": {"name": "Posyandu RW 9", "amenity": "clinic"}}, {"type": "Feature", "geometry": {"type": "Point", "coordinates": [106.8760286, -6.1511993]}, "properties": {"name": "Klinik Dhil Medika", "amenity": "clinic"}}, {"type": "Feature", "geometry": {"type": "Point", "coordinates": [106.8448212, -6.1763071]}, "properties": {"name": "Hospital Facility", "amenity": "hospital"}}, {"type": "Feature", "geometry": {"type": "Point", "coordinates": [106.8566912, -6.1428829]}, "properties": {"name": "Klinik Utama Cahaya Mentari", "amenity": "clinic"}}, {"type": "Feature", "geometry": {"type": "Point", "coordinates": [106.8567342, -6.1447277]}, "properties": {"name": "Klinik Umum dan Bersalin dr. Enggi Medical Center", "amenity": "clinic"}}, {"type": "Feature", "geometry": {"type": "Point", "coordinates": [106.8423634, -6.1786115]}, "properties": {"name": "Sub Station", "amenity": "police"}}, {"type": "Feature", "geometry": {"type": "Point", "coordinates": [106.843528, -6.1735534]}, "properties": {"name": "Pos Pengamanan Terpadu", "amenity": "police"}}, {"type": "Feature", "geometry": {"type": "Point", "coordinates": [106.8404543, -6.1698735]}, "properties": {"name": "SMAK3 BPK Penabur", "amenity": "school"}}, {"type": "Feature", "geometry": {"type": "Point", "coordinates": [106.8430267, -6.1626841]}, "properties": {"name": "Kemayoran", "amenity": "clinic"}}, {"type": "Feature", "geometry": {"type": "Point", "coordinates": [106.8412239, -6.1632065]}, "properties": {"name": "Klinik Utama Hemodialisa", "amenity": "clinic"}}, {"type": "Feature", "geometry": {"type": "Point", "coordinates": [106.8403622, -6.1629391]}, "properties": {"name": "Polisi Lalu Lintas", "amenity": "police"}}, {"type": "Feature", "geometry": {"type": "Point", "coordinates": [106.841147, -6.1623615]}, "properties": {"name": "Hutomus Yokonsa", "amenity": "driving_school"}}, {"type": "Feature", "geometry": {"type": "Point", "coordinates": [106.8426765, -6.1614627]}, "properties": {"name": "SMP Muhammadiyah 2 Jakarta", "amenity": "school"}}, {"type": "Feature", "geometry": {"type": "Point", "coordinates": [106.8690492, -6.1698396]}, "properties": {"name": "RS YARSI JAKARTA", "amenity": "hospital"}}, {"type": "Feature", "geometry": {"type": "Point", "coordinates": [106.8708222, -6.1706549]}, "properties": {"name": "RS ISLAM JAKARTA CEMPAKA PUTIH", "amenity": "hospital"}}, {"type": "Feature", "geometry": {"type": "Point", "coordinates": [106.8637725, -6.1567123]}, "properties": {"name": "RSUD KEMAYORAN", "amenity": "hospital"}}, {"type": "Feature", "geometry": {"type": "Point", "coordinates": [106.8758643, -6.1731387]}, "properties": {"name": "RS PERTAMINA JAYA", "amenity": "hospital"}}, {"type": "Feature", "geometry": {"type": "Point", "coordinates": [106.8585957, -6.1521122]}, "properties": {"name": "RS MITRA KELUARGA KEMAYORAN", "amenity": "hospital"}}, {"type": "Feature", "geometry": {"type": "Point", "coordinates": [106.8456843, -6.1542245]}, "properties": {"name": "RS HERMINA KEMAYORAN", "amenity": "hospital"}}, {"type": "Feature", "geometry": {"type": "Point", "coordinates": [106.8613627, -6.1455694]}, "properties": {"name": "RS HERMINA PODOMORO", "amenity": "hospital"}}, {"type": "Feature", "geometry": {"type": "Point", "coordinates": [106.8407307, -6.169824]}, "properties": {"name": "BPK Penabur", "amenity": "school"}}, {"type": "Feature", "geometry": {"type": "Point", "coordinates": [106.8587409, -6.1498469]}, "properties": {"name": "Jubilee School", "amenity": "school"}}, {"type": "Feature", "geometry": {"type": "Point", "coordinates": [106.8414238, -6.1572889]}, "properties": {"name": "Garuda Sentra Medika", "amenity": "hospital"}}, {"type": "Feature", "geometry": {"type": "Point", "coordinates": [106.8409694, -6.1612237]}, "properties": {"name": "Pasar Kombongan", "amenity": "marketplace"}}, {"type": "Feature", "geometry": {"type": "Point", "coordinates": [106.8596362, -6.1472264]}, "properties": {"name": "SD Negeri Sunter Agung 07-08", "amenity": "school"}}, {"type": "Feature", "geometry": {"type": "Point", "coordinates": [106.864732, -6.14188]}, "properties": {"name": "TK- SD Kristen Ipeka Sunter I", "amenity": "school"}}, {"type": "Feature", "geometry": {"type": "Point", "coordinates": [106.868446, -6.1555925]}, "properties": {"name": "MTs Negeri 39 Jakarta", "amenity": "school"}}, {"type": "Feature", "geometry": {"type": "Point", "coordinates": [106.8737042, -6.1600465]}, "properties": {"name": "SD Negeri Sunter Jaya 07-08", "amenity": "school"}}, {"type": "Feature", "geometry": {"type": "Point", "coordinates": [106.8737558, -6.1589853]}, "properties": {"name": "SDIT Al-Islamiyah", "amenity": "school"}}, {"type": "Feature", "geometry": {"type": "Point", "coordinates": [106.8716318, -6.1570438]}, "properties": {"name": "Saint Caroline School", "amenity": "school"}}, {"type": "Feature", "geometry": {"type": "Point", "coordinates": [106.8574951, -6.1695438]}, "properties": {"name": "Pasar Cempaka Sari III (Bedeng)", "amenity": "marketplace"}}, {"type": "Feature", "geometry": {"type": "Point", "coordinates": [106.8561115, -6.1622459]}, "properties": {"name": "Puskesmas Kel. Utan Panjang", "amenity": "clinic"}}, {"type": "Feature", "geometry": {"type": "Point", "coordinates": [106.8564865, -6.163144]}, "properties": {"name": "SD Muhammadiyah 49", "amenity": "school"}}, {"type": "Feature", "geometry": {"type": "Point", "coordinates": [106.8582435, -6.1624081]}, "properties": {"name": "SMP-SMA Al-Muddatsiriyah", "amenity": "school"}}, {"type": "Feature", "geometry": {"type": "Point", "coordinates": [106.8428389, -6.1619824]}, "properties": {"name": "Muhammadiyah Kemayoran I", "amenity": "school"}}, {"type": "Feature", "geometry": {"type": "Point", "coordinates": [106.8414827, -6.1662274]}, "properties": {"name": "SD Negeri Gunung Sahari Selatan 01/02", "amenity": "school"}}, {"type": "Feature", "geometry": {"type": "Point", "coordinates": [106.8505955, -6.1708336]}, "properties": {"name": "SD Negeri 01 dan 03 Bungur", "amenity": "school"}}, {"type": "Feature", "geometry": {"type": "Point", "coordinates": [106.8463758, -6.1698904]}, "properties": {"name": "SMP - SMA Muhammadiyah", "amenity": "school"}}, {"type": "Feature", "geometry": {"type": "Point", "coordinates": [106.8443635, -6.1691798]}, "properties": {"name": "Puskesmas Kelurahan Bungur", "amenity": "clinic"}}, {"type": "Feature", "geometry": {"type": "Point", "coordinates": [106.8472396, -6.164916]}, "properties": {"name": "Pasar Gardu Asem", "amenity": "marketplace"}}, {"type": "Feature", "geometry": {"type": "Point", "coordinates": [106.8512307, -6.1774376]}, "properties": {"name": "Poliklinik Pemberantasan Paru-paru", "amenity": "clinic"}}, {"type": "Feature", "geometry": {"type": "Point", "coordinates": [106.8482812, -6.1782927]}, "properties": {"name": "SMP Paskalis 1", "amenity": "school"}}, {"type": "Feature", "geometry": {"type": "Point", "coordinates": [106.8668367, -6.1747136]}, "properties": {"name": "SMP Negeri 77 Jakarta", "amenity": "school"}}, {"type": "Feature", "geometry": {"type": "Point", "coordinates": [106.8458088, -6.1790815]}, "properties": {"name": "SD Negeri Kramat 05 Pagi", "amenity": "school"}}, {"type": "Feature", "geometry": {"type": "Point", "coordinates": [106.8644167, -6.1644498]}, "properties": {"name": "Pasar Sumur Batu", "amenity": "marketplace"}}, {"type": "Feature", "geometry": {"type": "Point", "coordinates": [106.8672017, -6.158525]}, "properties": {"name": "SD Negeri Sumur Batu 10 Pagi", "amenity": "school"}}, {"type": "Feature", "geometry": {"type": "Point", "coordinates": [106.8670228, -6.1587625]}, "properties": {"name": "SD Negeri Sumur Batu 04", "amenity": "school"}}, {"type": "Feature", "geometry": {"type": "Point", "coordinates": [106.8667783, -6.1581079]}, "properties": {"name": "SD Negeri Sumur Batu 06", "amenity": "school"}}, {"type": "Feature", "geometry": {"type": "Point", "coordinates": [106.8672651, -6.1581474]}, "properties": {"name": "SD Negeri Sumur Batu 08", "amenity": "school"}}, {"type": "Feature", "geometry": {"type": "Point", "coordinates": [106.8646005, -6.1634999]}, "properties": {"name": "SMP Negeri 10 Jakarta", "amenity": "school"}}, {"type": "Feature", "geometry": {"type": "Point", "coordinates": [106.8658544, -6.1607991]}, "properties": {"name": "SMP Negeri 228 Jakarta", "amenity": "school"}}, {"type": "Feature", "geometry": {"type": "Point", "coordinates": [106.8590923, -6.1543145]}, "properties": {"name": "SD Negeri Kebon Kosong 02, 04", "amenity": "school"}}, {"type": "Feature", "geometry": {"type": "Point", "coordinates": [106.8564238, -6.1562739]}, "properties": {"name": "SMP Negeri 79 Jakarta", "amenity": "school"}}, {"type": "Feature", "geometry": {"type": "Point", "coordinates": [106.8547526, -6.1585316]}, "properties": {"name": "SMK Negeri 21 Jakarta", "amenity": "school"}}, {"type": "Feature", "geometry": {"type": "Point", "coordinates": [106.8564952, -6.1567465]}, "properties": {"name": "Puskesmas Kelurahan Kebon Kosong I", "amenity": "clinic"}}, {"type": "Feature", "geometry": {"type": "Point", "coordinates": [106.8562886, -6.1564553]}, "properties": {"name": "SD Negeri Kebon Kosong 01 Pagi", "amenity": "school"}}, {"type": "Feature", "geometry": {"type": "Point", "coordinates": [106.8541929, -6.1599876]}, "properties": {"name": "SD Negeri Kebon Kosong 09 Pagi", "amenity": "school"}}, {"type": "Feature", "geometry": {"type": "Point", "coordinates": [106.8532192, -6.1591745]}, "properties": {"name": "Polsek Kemayoran Polres Metro Jakarta Pusat", "amenity": "police"}}, {"type": "Feature", "geometry": {"type": "Point", "coordinates": [106.8557974, -6.1672167]}, "properties": {"name": "SD Negeri Harapan Mulya 01-02", "amenity": "school"}}, {"type": "Feature", "geometry": {"type": "Point", "coordinates": [106.8528597, -6.1733389]}, "properties": {"name": "SMP Negeri 78 Jakarta", "amenity": "school"}}, {"type": "Feature", "geometry": {"type": "Point", "coordinates": [106.8545731, -6.1696473]}, "properties": {"name": "Posyandu RW 06", "amenity": "clinic"}}, {"type": "Feature", "geometry": {"type": "Point", "coordinates": [106.8548855, -6.1777863]}, "properties": {"name": "Pasar Gembrong Galur", "amenity": "marketplace"}}, {"type": "Feature", "geometry": {"type": "Point", "coordinates": [106.8568926, -6.1775822]}, "properties": {"name": "Puskesmas Kelurahan Galur", "amenity": "clinic"}}, {"type": "Feature", "geometry": {"type": "Point", "coordinates": [106.8655059, -6.1635288]}, "properties": {"name": "Puskesmas Kecamatan Kemayoran", "amenity": "clinic"}}, {"type": "Feature", "geometry": {"type": "Point", "coordinates": [106.8692264, -6.1642508]}, "properties": {"name": "SMK Poncol Kemayoran", "amenity": "school"}}, {"type": "Feature", "geometry": {"type": "Point", "coordinates": [106.8601648, -6.1670375]}, "properties": {"name": "SMP Negeri 183 Jakarta", "amenity": "school"}}, {"type": "Feature", "geometry": {"type": "Point", "coordinates": [106.8653656, -6.1694158]}, "properties": {"name": "SD Negeri Cempaka Baru 03 Pagi", "amenity": "school"}}, {"type": "Feature", "geometry": {"type": "Point", "coordinates": [106.8580223, -6.1652297]}, "properties": {"name": "SD Negeri Cempaka Baru 09", "amenity": "school"}}, {"type": "Feature", "geometry": {"type": "Point", "coordinates": [106.8636188, -6.1679596]}, "properties": {"name": "SMK Negeri 44 Jakarta", "amenity": "school"}}, {"type": "Feature", "geometry": {"type": "Point", "coordinates": [106.8634434, -6.1682996]}, "properties": {"name": "SMP Negeri 119 Jakarta", "amenity": "school"}}, {"type": "Feature", "geometry": {"type": "Point", "coordinates": [106.8647213, -6.1591784]}, "properties": {"name": "SD Negeri Serdang 13 Pagi", "amenity": "school"}}, {"type": "Feature", "geometry": {"type": "Point", "coordinates": [106.862302, -6.169606]}, "properties": {"name": "SMP-SMA Pergunas 1", "amenity": "school"}}, {"type": "Feature", "geometry": {"type": "Point", "coordinates": [106.8610854, -6.1711019]}, "properties": {"name": "SD Islam Qatrunnada", "amenity": "school"}}, {"type": "Feature", "geometry": {"type": "Point", "coordinates": [106.8451608, -6.1625241]}, "properties": {"name": "SMK Taman Siswa 2", "amenity": "school"}}, {"type": "Feature", "geometry": {"type": "Point", "coordinates": [106.8445785, -6.1634132]}, "properties": {"name": "SD Sandika", "amenity": "school"}}, {"type": "Feature", "geometry": {"type": "Point", "coordinates": [106.8782997, -6.1659856]}, "properties": {"name": "Pol Sub Sektor Cempaka Mas", "amenity": "police"}}, {"type": "Feature", "geometry": {"type": "Point", "coordinates": [106.8655717, -6.1688162]}, "properties": {"name": "Posyandu Melati", "amenity": "clinic"}}, {"type": "Feature", "geometry": {"type": "Point", "coordinates": [106.8677869, -6.1679149]}, "properties": {"name": "Posyandu Cempaka I", "amenity": "clinic"}}, {"type": "Feature", "geometry": {"type": "Point", "coordinates": [106.8598643, -6.1717856]}, "properties": {"name": "Puskesmas Kelurahan Cempaka Baru", "amenity": "clinic"}}, {"type": "Feature", "geometry": {"type": "Point", "coordinates": [106.8552627, -6.1792937]}, "properties": {"name": "Puskesmas Kampung Rawa", "amenity": "clinic"}}, {"type": "Feature", "geometry": {"type": "Point", "coordinates": [106.8628772, -6.1658901]}, "properties": {"name": "SD Negeri Cempaka Baru 11", "amenity": "school"}}, {"type": "Feature", "geometry": {"type": "Point", "coordinates": [106.8626247, -6.1664935]}, "properties": {"name": "SD Negeri Cempaka Baru 12-13-14", "amenity": "school"}}, {"type": "Feature", "geometry": {"type": "Point", "coordinates": [106.8545472, -6.1770274]}, "properties": {"name": "SD Persatuan Umat Islam", "amenity": "school"}}, {"type": "Feature", "geometry": {"type": "Point", "coordinates": [106.8584783, -6.1771506]}, "properties": {"name": "Klinik Pratama Cahaya", "amenity": "clinic"}}, {"type": "Feature", "geometry": {"type": "Point", "coordinates": [106.8589488, -6.1801271]}, "properties": {"name": "SD Negeri Kampung Rawa 02", "amenity": "school"}}, {"type": "Feature", "geometry": {"type": "Point", "coordinates": [106.8560303, -6.1774675]}, "properties": {"name": "SD Negeri Galur 01, 02, 03, 04 Pagi", "amenity": "school"}}, {"type": "Feature", "geometry": {"type": "Point", "coordinates": [106.8482474, -6.1772953]}, "properties": {"name": "SD Paskalis 1", "amenity": "school"}}, {"type": "Feature", "geometry": {"type": "Point", "coordinates": [106.8599873, -6.1787359]}, "properties": {"name": "SD Negeri Percontohan Cempaka Putih Barat", "amenity": "school"}}, {"type": "Feature", "geometry": {"type": "Point", "coordinates": [106.8590949, -6.1772907]}, "properties": {"name": "SD Negeri Cempaka Putih Barat 03 - 04", "amenity": "school"}}, {"type": "Feature", "geometry": {"type": "Point", "coordinates": [106.8631716, -6.1752684]}, "properties": {"name": "SD Negeri Cempaka Putih 01-11-13 Pagi", "amenity": "school"}}, {"type": "Feature", "geometry": {"type": "Point", "coordinates": [106.8639581, -6.1787505]}, "properties": {"name": "Yayasan Bhakti Likhita Butala", "amenity": "school"}}, {"type": "Feature", "geometry": {"type": "Point", "coordinates": [106.8610541, -6.1756361]}, "properties": {"name": "Puskesmas Kelurahan Cempaka Putih Barat II", "amenity": "clinic"}}, {"type": "Feature", "geometry": {"type": "Point", "coordinates": [106.8597157, -6.1770784]}, "properties": {"name": "SD Negeri Cempaka Putih Barat 19-20-26", "amenity": "school"}}, {"type": "Feature", "geometry": {"type": "Point", "coordinates": [106.8614641, -6.1731269]}, "properties": {"name": "Resor Metropolitan Jakpus Sektor Cempaka Putih", "amenity": "police"}}, {"type": "Feature", "geometry": {"type": "Point", "coordinates": [106.8665902, -6.1801231]}, "properties": {"name": "SD Negeri Cempaka Putih Barat 17", "amenity": "school"}}, {"type": "Feature", "geometry": {"type": "Point", "coordinates": [106.8631917, -6.1729491]}, "properties": {"name": "Pasar Cempaka Putih Barat", "amenity": "marketplace"}}, {"type": "Feature", "geometry": {"type": "Point", "coordinates": [106.8601996, -6.1798613]}, "properties": {"name": "Pasar Gembrong Cempaka Putih", "amenity": "marketplace"}}, {"type": "Feature", "geometry": {"type": "Point", "coordinates": [106.8467448, -6.1760838]}, "properties": {"name": "SD Negeri Tanah Tinggi 03, 04, 05, 06 Pagi dan 04 Petang", "amenity": "school"}}, {"type": "Feature", "geometry": {"type": "Point", "coordinates": [106.8472875, -6.179147]}, "properties": {"name": "SD Al-Ittihadiyah", "amenity": "school"}}, {"type": "Feature", "geometry": {"type": "Point", "coordinates": [106.869327, -6.1721988]}, "properties": {"name": "TK-SD Rumpun Cempaka", "amenity": "school"}}, {"type": "Feature", "geometry": {"type": "Point", "coordinates": [106.8703901, -6.1712035]}, "properties": {"name": "SMK Negeri 39 Jakarta", "amenity": "school"}}, {"type": "Feature", "geometry": {"type": "Point", "coordinates": [106.8709736, -6.1721408]}, "properties": {"name": "Klinik Ruslam", "amenity": "clinic"}}, {"type": "Feature", "geometry": {"type": "Point", "coordinates": [106.8722148, -6.1779941]}, "properties": {"name": "SD Cempaka Wangi", "amenity": "school"}}, {"type": "Feature", "geometry": {"type": "Point", "coordinates": [106.866788, -6.1751859]}, "properties": {"name": "SMA Negeri 77 Jakarta", "amenity": "school"}}, {"type": "Feature", "geometry": {"type": "Point", "coordinates": [106.845645, -6.1542962]}, "properties": {"name": "RS Hermina Kemayoran", "amenity": "hospital"}}, {"type": "Feature", "geometry": {"type": "Point", "coordinates": [106.8428894, -6.1553441]}, "properties": {"name": "Sudin Pemadam Kebakaran Sektor Kemayoran", "amenity": "fire_station"}}, {"type": "Feature", "geometry": {"type": "Point", "coordinates": [106.8444542, -6.1674223]}, "properties": {"name": "MTs-MA An-Nur", "amenity": "school"}}, {"type": "Feature", "geometry": {"type": "Point", "coordinates": [106.8723932, -6.161378]}, "properties": {"name": "Klinik Pratama Paskalis", "amenity": "clinic"}}, {"type": "Feature", "geometry": {"type": "Point", "coordinates": [106.8569038, -6.1533589]}, "properties": {"name": "SD Negeri Kebon Kosong 03 Pagi", "amenity": "school"}}, {"type": "Feature", "geometry": {"type": "Point", "coordinates": [106.8444525, -6.1638231]}, "properties": {"name": "Posyandu Tulip", "amenity": "clinic"}}, {"type": "Feature", "geometry": {"type": "Point", "coordinates": [106.8514562, -6.1720403]}, "properties": {"name": "Klinik Dr. Mekka", "amenity": "clinic"}}, {"type": "Feature", "geometry": {"type": "Point", "coordinates": [106.8661196, -6.1794236]}, "properties": {"name": "Klinik Pratama Cempaka Putih 24 Jam", "amenity": "clinic"}}, {"type": "Feature", "geometry": {"type": "Point", "coordinates": [106.8497714, -6.1685706]}, "properties": {"name": "TK - SD Nazareth Kudus", "amenity": "school"}}, {"type": "Feature", "geometry": {"type": "Point", "coordinates": [106.8496093, -6.1678779]}, "properties": {"name": "Pasar Jaya Nangka Bungur", "amenity": "marketplace"}}, {"type": "Feature", "geometry": {"type": "Point", "coordinates": [106.8436272, -6.1793233]}, "properties": {"name": "Sekolah Perguruan Advent I Jakarta", "amenity": "school"}}, {"type": "Feature", "geometry": {"type": "Point", "coordinates": [106.8510927, -6.1680683]}, "properties": {"name": "Posyandu Dahlia", "amenity": "clinic"}}, {"type": "Feature", "geometry": {"type": "Point", "coordinates": [106.8423334, -6.1618831]}, "properties": {"name": "TK-SD-SMP-SMK Tamansiswa", "amenity": "school"}}, {"type": "Feature", "geometry": {"type": "Point", "coordinates": [106.8400414, -6.1545822]}, "properties": {"name": "SLB C Dian Grahita", "amenity": "school"}}, {"type": "Feature", "geometry": {"type": "Point", "coordinates": [106.8498156, -6.17141]}, "properties": {"name": "Klinik Pratama KDK FKUI Kiara", "amenity": "clinic"}}, {"type": "Feature", "geometry": {"type": "Point", "coordinates": [106.8502025, -6.171664]}, "properties": {"name": "Kinara Klinik", "amenity": "clinic"}}, {"type": "Feature", "geometry": {"type": "Point", "coordinates": [106.8565498, -6.1675848]}, "properties": {"name": "SMP Muhammadiyah 27 - SMA Muhammadiyah 11", "amenity": "school"}}, {"type": "Feature", "geometry": {"type": "Point", "coordinates": [106.8536559, -6.1726307]}, "properties": {"name": "Taman Pendidikan Kencana TK-SD", "amenity": "school"}}, {"type": "Feature", "geometry": {"type": "Point", "coordinates": [106.8569527, -6.1668618]}, "properties": {"name": "SDI As-Salam", "amenity": "school"}}, {"type": "Feature", "geometry": {"type": "Point", "coordinates": [106.8560906, -6.1731364]}, "properties": {"name": "SD Negeri Harapan Mulia 03 Pagi-04 Petang", "amenity": "school"}}, {"type": "Feature", "geometry": {"type": "Point", "coordinates": [106.8551804, -6.17091]}, "properties": {"name": "SMP Negeri 269 Jakarta", "amenity": "school"}}, {"type": "Feature", "geometry": {"type": "Point", "coordinates": [106.855306, -6.1713479]}, "properties": {"name": "Puskesmas Kelurahan Harapan Mulia", "amenity": "clinic"}}, {"type": "Feature", "geometry": {"type": "Point", "coordinates": [106.849464, -6.1698544]}, "properties": {"name": "Yayasan Masjid Meranti", "amenity": "school"}}, {"type": "Feature", "geometry": {"type": "Point", "coordinates": [106.8713153, -6.1712857]}, "properties": {"name": "Rumah Sakit Islam Jakarta", "amenity": "hospital"}}, {"type": "Feature", "geometry": {"type": "Point", "coordinates": [106.8560978, -6.1655265]}, "properties": {"name": "Posyandu Cempaka RW 04", "amenity": "clinic"}}, {"type": "Feature", "geometry": {"type": "Point", "coordinates": [106.8558173, -6.1669749]}, "properties": {"name": "School Facility", "amenity": "school"}}, {"type": "Feature", "geometry": {"type": "Point", "coordinates": [106.860294, -6.1713877]}, "properties": {"name": "Yayasan Pendidikan Sitisari SMP-SMK Jakarta 2", "amenity": "school"}}, {"type": "Feature", "geometry": {"type": "Point", "coordinates": [106.868226, -6.1669836]}, "properties": {"name": "SD Negeri Cempaka Baru 05-06-07", "amenity": "school"}}, {"type": "Feature", "geometry": {"type": "Point", "coordinates": [106.8603282, -6.16717]}, "properties": {"name": "SD Negeri Cempaka Baru 01", "amenity": "school"}}, {"type": "Feature", "geometry": {"type": "Point", "coordinates": [106.8670085, -6.1661649]}, "properties": {"name": "Klinik Mutiara Hati", "amenity": "clinic"}}, {"type": "Feature", "geometry": {"type": "Point", "coordinates": [106.843271, -6.1721563]}, "properties": {"name": "Polsek Metro Senen", "amenity": "police"}}, {"type": "Feature", "geometry": {"type": "Point", "coordinates": [106.8396422, -6.178295]}, "properties": {"name": "SD Negeri SSN Senen 03", "amenity": "school"}}, {"type": "Feature", "geometry": {"type": "Point", "coordinates": [106.8535405, -6.1688959]}, "properties": {"name": "SDI-MTs Nurani", "amenity": "school"}}, {"type": "Feature", "geometry": {"type": "Point", "coordinates": [106.85614, -6.1613202]}, "properties": {"name": "Rumah Bersalin H.S. Mangkuprawira", "amenity": "clinic"}}, {"type": "Feature", "geometry": {"type": "Point", "coordinates": [106.8586767, -6.1630149]}, "properties": {"name": "SDI Al-Muddatsiriyah", "amenity": "school"}}, {"type": "Feature", "geometry": {"type": "Point", "coordinates": [106.8556265, -6.1606861]}, "properties": {"name": "SD Negeri Utan Panjang 01-02-03-04", "amenity": "school"}}, {"type": "Feature", "geometry": {"type": "Point", "coordinates": [106.8552889, -6.1610776]}, "properties": {"name": "Pasar Kemayoran", "amenity": "marketplace"}}, {"type": "Feature", "geometry": {"type": "Point", "coordinates": [106.8544083, -6.1621626]}, "properties": {"name": "Klinik MH. Thamrin", "amenity": "clinic"}}, {"type": "Feature", "geometry": {"type": "Point", "coordinates": [106.8551297, -6.1644566]}, "properties": {"name": "Posyandu Teratai", "amenity": "clinic"}}, {"type": "Feature", "geometry": {"type": "Point", "coordinates": [106.8492911, -6.1682437]}, "properties": {"name": "TK-SD-SMP-SMA Sekolah Kartini", "amenity": "school"}}, {"type": "Feature", "geometry": {"type": "Point", "coordinates": [106.8492175, -6.172148]}, "properties": {"name": "Yayasan Madrasah Jamiat Khair Tanah Tinggi Jakarta Pusat", "amenity": "school"}}, {"type": "Feature", "geometry": {"type": "Point", "coordinates": [106.8631772, -6.1625125]}, "properties": {"name": "Suku Dinas Pemadam Kebakaran Serdang", "amenity": "fire_station"}}, {"type": "Feature", "geometry": {"type": "Point", "coordinates": [106.8551351, -6.159577]}, "properties": {"name": "POLSUB Sektor Bendungan Jago", "amenity": "police"}}, {"type": "Feature", "geometry": {"type": "Point", "coordinates": [106.8541695, -6.158353]}, "properties": {"name": "Puskesmas Kebon Kosong 2", "amenity": "clinic"}}, {"type": "Feature", "geometry": {"type": "Point", "coordinates": [106.8567139, -6.1567207]}, "properties": {"name": "SD Negeri Kebon Kosong 05", "amenity": "school"}}, {"type": "Feature", "geometry": {"type": "Point", "coordinates": [106.8582509, -6.1537013]}, "properties": {"name": "SD Negeri Kebon Kosong 16 Pagi", "amenity": "school"}}, {"type": "Feature", "geometry": {"type": "Point", "coordinates": [106.8508532, -6.1632951]}, "properties": {"name": "SD Negeri Kebon Kosong 17 18 19", "amenity": "school"}}, {"type": "Feature", "geometry": {"type": "Point", "coordinates": [106.8588604, -6.1547858]}, "properties": {"name": "Yayasan Pendidikan Makna Bhakti (TK-SMP-SLB)", "amenity": "school"}}, {"type": "Feature", "geometry": {"type": "Point", "coordinates": [106.8552002, -6.1558039]}, "properties": {"name": "SD Muhammadiyah 50", "amenity": "school"}}, {"type": "Feature", "geometry": {"type": "Point", "coordinates": [106.8504327, -6.1631063]}, "properties": {"name": "SD Negeri Kebon Kosong 13-14 Pagi", "amenity": "school"}}, {"type": "Feature", "geometry": {"type": "Point", "coordinates": [106.8503558, -6.162775]}, "properties": {"name": "SD Negeri Kebon Kosong 15 Pagi", "amenity": "school"}}, {"type": "Feature", "geometry": {"type": "Point", "coordinates": [106.8580088, -6.1540478]}, "properties": {"name": "SD Negeri Kebon Kosong 07,11 Pagi", "amenity": "school"}}, {"type": "Feature", "geometry": {"type": "Point", "coordinates": [106.8430454, -6.1651871]}, "properties": {"name": "SD Negeri Kemayoran 01-07-15-16", "amenity": "school"}}, {"type": "Feature", "geometry": {"type": "Point", "coordinates": [106.8474001, -6.1636331]}, "properties": {"name": "SD Negeri Kemayoran 09-10-11-12-13-14", "amenity": "school"}}, {"type": "Feature", "geometry": {"type": "Point", "coordinates": [106.8482496, -6.1646829]}, "properties": {"name": "PKBM Negeri 01", "amenity": "school"}}, {"type": "Feature", "geometry": {"type": "Point", "coordinates": [106.8468476, -6.159517]}, "properties": {"name": "Sekolah Kristen Kanaan", "amenity": "school"}}, {"type": "Feature", "geometry": {"type": "Point", "coordinates": [106.8650814, -6.1624361]}, "properties": {"name": "SD Negeri Sumur Batu 01", "amenity": "school"}}, {"type": "Feature", "geometry": {"type": "Point", "coordinates": [106.8618366, -6.1423375]}, "properties": {"name": "Puskesmas Kelurahan Sunter Agung", "amenity": "clinic"}}, {"type": "Feature", "geometry": {"type": "Point", "coordinates": [106.8417742, -6.1672194]}, "properties": {"name": "KB/TK-SD-SMP-SMK Saint John", "amenity": "school"}}, {"type": "Feature", "geometry": {"type": "Point", "coordinates": [106.8453535, -6.1571077]}, "properties": {"name": "Polsub Sektor Kota Baru", "amenity": "police"}}, {"type": "Feature", "geometry": {"type": "Point", "coordinates": [106.8447637, -6.1613555]}, "properties": {"name": "SMK Negeri 3 Jakarta", "amenity": "school"}}, {"type": "Feature", "geometry": {"type": "Point", "coordinates": [106.8410289, -6.1701954]}, "properties": {"name": "TK-SD Budi Mulia, SMP Van Lith", "amenity": "school"}}, {"type": "Feature", "geometry": {"type": "Point", "coordinates": [106.8418922, -6.1703633]}, "properties": {"name": "Posyandu RW 08", "amenity": "clinic"}}, {"type": "Feature", "geometry": {"type": "Point", "coordinates": [106.8651096, -6.1627582]}, "properties": {"name": "Puskesmas Kelurahan Sumur Batu", "amenity": "clinic"}}, {"type": "Feature", "geometry": {"type": "Point", "coordinates": [106.8647015, -6.1590131]}, "properties": {"name": "Posyandu Mawar", "amenity": "clinic"}}, {"type": "Feature", "geometry": {"type": "Point", "coordinates": [106.8603916, -6.1615151]}, "properties": {"name": "Puskesmas Serdang", "amenity": "clinic"}}, {"type": "Feature", "geometry": {"type": "Point", "coordinates": [106.8604956, -6.1614869]}, "properties": {"name": "SD Negeri Seredang 05-06", "amenity": "school"}}, {"type": "Feature", "geometry": {"type": "Point", "coordinates": [106.8568434, -6.1607957]}, "properties": {"name": "SMP Negeri 59 Jakarta", "amenity": "school"}}, {"type": "Feature", "geometry": {"type": "Point", "coordinates": [106.8675617, -6.1649567]}, "properties": {"name": "Madrasah Ibtidaiyah Hidayatullah", "amenity": "school"}}, {"type": "Feature", "geometry": {"type": "Point", "coordinates": [106.8665461, -6.1554583]}, "properties": {"name": "Puskesmas Kelurahan Sunter Jaya I", "amenity": "clinic"}}, {"type": "Feature", "geometry": {"type": "Point", "coordinates": [106.857402, -6.1574111]}, "properties": {"name": "SMA Taman Madya I", "amenity": "school"}}, {"type": "Feature", "geometry": {"type": "Point", "coordinates": [106.8584614, -6.1571683]}, "properties": {"name": "Posyandu Cempaka", "amenity": "clinic"}}, {"type": "Feature", "geometry": {"type": "Point", "coordinates": [106.8637808, -6.1566769]}, "properties": {"name": "RSUD Kecamatan Kemayoran", "amenity": "hospital"}}, {"type": "Feature", "geometry": {"type": "Point", "coordinates": [106.8615565, -6.1565504]}, "properties": {"name": "SD Negeri Serdang 07 09, 11 12", "amenity": "school"}}, {"type": "Feature", "geometry": {"type": "Point", "coordinates": [106.8644855, -6.1567269]}, "properties": {"name": "Pasar Serdang Jaya", "amenity": "marketplace"}}, {"type": "Feature", "geometry": {"type": "Point", "coordinates": [106.8731345, -6.1616189]}, "properties": {"name": "SD-SMP-SMA Yayasan Paskalis", "amenity": "school"}}, {"type": "Feature", "geometry": {"type": "Point", "coordinates": [106.8665896, -6.1584825]}, "properties": {"name": "SD Negeri Sumur Batu 03", "amenity": "school"}}, {"type": "Feature", "geometry": {"type": "Point", "coordinates": [106.8667018, -6.1588998]}, "properties": {"name": "SMA Negeri 5 Jakarta", "amenity": "school"}}, {"type": "Feature", "geometry": {"type": "Point", "coordinates": [106.8686434, -6.1617454]}, "properties": {"name": "SD Negeri Sumur Batu 14/15", "amenity": "school"}}, {"type": "Feature", "geometry": {"type": "Point", "coordinates": [106.8689312, -6.1614877]}, "properties": {"name": "SD Negeri Sumur Batu 12", "amenity": "school"}}, {"type": "Feature", "geometry": {"type": "Point", "coordinates": [106.8599415, -6.157472]}, "properties": {"name": "TK - SD Karmel", "amenity": "school"}}, {"type": "Feature", "geometry": {"type": "Point", "coordinates": [106.8400498, -6.1456273]}, "properties": {"name": "SD Negeri Gunung Sahari Utara 01 Pagi", "amenity": "school"}}, {"type": "Feature", "geometry": {"type": "Point", "coordinates": [106.8399826, -6.1453483]}, "properties": {"name": "Yayasan At Taqwa (SD-SMK)", "amenity": "school"}}, {"type": "Feature", "geometry": {"type": "Point", "coordinates": [106.8401485, -6.1537117]}, "properties": {"name": "Mahatma Gandhi School", "amenity": "school"}}, {"type": "Feature", "geometry": {"type": "Point", "coordinates": [106.840692, -6.168893]}, "properties": {"name": "KB-TK-SD-SMP-SMK Strada", "amenity": "school"}}, {"type": "Feature", "geometry": {"type": "Point", "coordinates": [106.843649, -6.1421902]}, "properties": {"name": "SMA Santa Maria Della Strada", "amenity": "school"}}, {"type": "Feature", "geometry": {"type": "Point", "coordinates": [106.8433415, -6.1420395]}, "properties": {"name": "SMP Santa Maria Della Strada", "amenity": "school"}}, {"type": "Feature", "geometry": {"type": "Point", "coordinates": [106.8430133, -6.1411176]}, "properties": {"name": "Klinik Pratama Melania", "amenity": "clinic"}}, {"type": "Feature", "geometry": {"type": "Point", "coordinates": [106.8666762, -6.1570477]}, "properties": {"name": "Klinik Pratama Sunter Medical Center", "amenity": "clinic"}}, {"type": "Feature", "geometry": {"type": "Point", "coordinates": [106.8400155, -6.1403411]}, "properties": {"name": "Klinik Kartika", "amenity": "clinic"}}, {"type": "Feature", "geometry": {"type": "Point", "coordinates": [106.8401951, -6.1400094]}, "properties": {"name": "Laboratorium Klinik Pademangan", "amenity": "clinic"}}, {"type": "Feature", "geometry": {"type": "Point", "coordinates": [106.8409897, -6.1428077]}, "properties": {"name": "Klinik Rajawali", "amenity": "clinic"}}, {"type": "Feature", "geometry": {"type": "Point", "coordinates": [106.8742283, -6.1590109]}, "properties": {"name": "SMP-SMA-SMK-PKBM Al-Islamiyah", "amenity": "school"}}, {"type": "Feature", "geometry": {"type": "Point", "coordinates": [106.851406, -6.1504839]}, "properties": {"name": "Universal School", "amenity": "school"}}, {"type": "Feature", "geometry": {"type": "Point", "coordinates": [106.8430079, -6.1415932]}, "properties": {"name": "TK-SD Santo Lukas", "amenity": "school"}}, {"type": "Feature", "geometry": {"type": "Point", "coordinates": [106.863841, -6.1555874]}, "properties": {"name": "Klinik Cempaka", "amenity": "clinic"}}, {"type": "Feature", "geometry": {"type": "Point", "coordinates": [106.8632952, -6.1508644]}, "properties": {"name": "TK-SD St. Anna", "amenity": "school"}}, {"type": "Feature", "geometry": {"type": "Point", "coordinates": [106.861361, -6.1542303]}, "properties": {"name": "Polisi Subsektor Sunter Jaya", "amenity": "police"}}, {"type": "Feature", "geometry": {"type": "Point", "coordinates": [106.8695239, -6.1448536]}, "properties": {"name": "TK-SD-SMP-SMA-SMK Dharma Budhi Bhakti", "amenity": "school"}}, {"type": "Feature", "geometry": {"type": "Point", "coordinates": [106.8710225, -6.1431095]}, "properties": {"name": "SDIT Al-Amanah", "amenity": "school"}}, {"type": "Feature", "geometry": {"type": "Point", "coordinates": [106.8707302, -6.1415454]}, "properties": {"name": "SMP Negeri 221 Jakarta", "amenity": "school"}}, {"type": "Feature", "geometry": {"type": "Point", "coordinates": [106.8704901, -6.1402687]}, "properties": {"name": "SMA Negeri 80 Jakarta", "amenity": "school"}}, {"type": "Feature", "geometry": {"type": "Point", "coordinates": [106.8632454, -6.1463175]}, "properties": {"name": "Sekolah Katolik Santo Paulus", "amenity": "school"}}, {"type": "Feature", "geometry": {"type": "Point", "coordinates": [106.8613679, -6.1455484]}, "properties": {"name": "Rumah Sakit Hermina Podomoro", "amenity": "hospital"}}, {"type": "Feature", "geometry": {"type": "Point", "coordinates": [106.8612079, -6.143855]}, "properties": {"name": "SD Negeri Sunter Agung 03 Pagi", "amenity": "school"}}, {"type": "Feature", "geometry": {"type": "Point", "coordinates": [106.8678116, -6.1560223]}, "properties": {"name": "SMP Negeri 152 Jakarta", "amenity": "school"}}, {"type": "Feature", "geometry": {"type": "Point", "coordinates": [106.8730474, -6.1580792]}, "properties": {"name": "Pasar Sunter Kirana", "amenity": "marketplace"}}, {"type": "Feature", "geometry": {"type": "Point", "coordinates": [106.8718866, -6.1526378]}, "properties": {"name": "Puskesmas Kelurahan Sunter Jaya II", "amenity": "clinic"}}, {"type": "Feature", "geometry": {"type": "Point", "coordinates": [106.8676161, -6.1556322]}, "properties": {"name": "SMP-SMA-SMK Gita Kirtti 2", "amenity": "school"}}, {"type": "Feature", "geometry": {"type": "Point", "coordinates": [106.8669989, -6.1558115]}, "properties": {"name": "SD Negeri Sunter Jaya 01-03-05 Pagi & 02-04-06 Petang", "amenity": "school"}}, {"type": "Feature", "geometry": {"type": "Point", "coordinates": [106.8708299, -6.1546763]}, "properties": {"name": "Posyandu Lansia Mawar 07", "amenity": "clinic"}}, {"type": "Feature", "geometry": {"type": "Point", "coordinates": [106.8627247, -6.1424122]}, "properties": {"name": "Klinik Pratama", "amenity": "clinic"}}, {"type": "Feature", "geometry": {"type": "Point", "coordinates": [106.858545, -6.152172]}, "properties": {"name": "RS Mitra Kemayoran", "amenity": "hospital"}}, {"type": "Feature", "geometry": {"type": "Point", "coordinates": [106.8516408, -6.1512901]}, "properties": {"name": "Gandhi Memorial International School", "amenity": "school"}}, {"type": "Feature", "geometry": {"type": "Point", "coordinates": [106.8606572, -6.155724]}, "properties": {"name": "SMK Negeri 54 Jakarta", "amenity": "school"}}]}