{"type": "FeatureCollection", "features": [{"type": "Feature", "geometry": {"type": "Point", "coordinates": [106.858593, -6.162345]}, "properties": {"epicenter_id": "EP-1", "n_nodes": 1306, "triage_score": 0.7995, "mean_risk_score": 0.899, "mean_poi_crit": 0.5067, "priority_rank": 1}}, {"type": "Feature", "geometry": {"type": "Point", "coordinates": [106.875575, -6.1628]}, "properties": {"epicenter_id": "EP-3", "n_nodes": 6, "triage_score": 0.4892, "mean_risk_score": 0.8557, "mean_poi_crit": 0.2016, "priority_rank": 2}}, {"type": "Feature", "geometry": {"type": "Point", "coordinates": [106.879003, -6.176882]}, "properties": {"epicenter_id": "EP-2", "n_nodes": 4, "triage_score": 0.489, "mean_risk_score": 0.9767, "mean_poi_crit": 0.0, "priority_rank": 3}}]}